CP9 (LEO)
1 44360U 19036X   20013.08474597  .00029410 -51252-5  36424-3 0  9995
2 44360  28.5160 317.7074 0357415  97.4109 266.7236 15.07769883 30239
2019-036Y
1 44361U 19036Y   20013.87570274  .00026438 -51626-5  32238-3 0  9993
2 44361  28.5193 312.4193 0358574 106.0077 258.0241 15.07715186 30370
PINOT
1 44364U 98067QJ  20013.21153907  .00004458  00000-0  78052-4 0  9992
2 44364  51.6460  37.6983 0008237 104.4253 255.7635 15.52814850 31051
PAINANI 1
1 44365U 19037A   20012.98675104  .00002317  00000-0  70669-4 0  9992
2 44365  45.0156 274.0564 0006460   5.9720 354.1263 15.37451583 30438
PROMETHEUS 2-9
1 44366U 19037B   20013.71384643  .00004215  00000-0  11652-3 0  9995
2 44366  45.0167 268.5888 0007879 357.3834   2.6990 15.38692354 30563
GLOBAL-3
1 44367U 19037C   20013.14305412  .00002068  00000-0  62699-4 0  9992
2 44367  45.0167 271.8644 0009991 350.0935   9.9755 15.38135897 30473
ELECTRON KICK STAGE R/B
1 44368U 19037D   20013.76717392  .00005333  00000-0  13680-3 0  9998
2 44368  45.0161 265.5321 0013428 359.0756   1.0029 15.40472693 30603
ACRUX 1
1 44369U 19037E   20012.77434820  .00004591  00000-0  11899-3 0  9996
2 44369  45.0151 270.8379 0014653 341.8069  18.2289 15.40449657 30402
SPACEBEE-9
1 44370U 19037F   20013.70225529  .00006357  00000-0  15795-3 0  9997
2 44370  45.0162 265.0926 0014513 348.0332  12.0192 15.41125986 30555
SPACEBEE-8
1 44371U 19037G   20013.70641166  .00015004  00000-0  33560-3 0  9996
2 44371  45.0143 263.4397 0012716 354.8306   5.2406 15.43341064 30560
PROMETHEUS 2-7
1 44374U 19037K   20012.72945547  .00004901  00000-0  13344-3 0  9992
2 44374  45.0184 273.9200 0008092 353.5403   6.5377 15.38835261 30228
IOD-1 GEMS
1 44385U 98067QK  20012.78440443  .00011599  00000-0  17236-3 0  9990
2 44385  51.6413  37.8804 0003492  95.9442 264.1948 15.55658440 30063
PROMETHEUS 2-6
1 44386U 19036AB  20013.09710586  .00021448  00000-0  30764-3 0  9998
2 44386  28.5317 321.0496 0361676  91.6351 272.5692 15.04674723 29049
METEOR-M2 2
1 44387U 19038A   20013.83612520 -.00000015  00000-0  12280-4 0  9994
2 44387  98.5983 337.1522 0001249  18.2052 341.9172 14.23675065 27394
2019-038B
1 44388U 19038B   20013.84443339  .00002064  00000-0  18630-3 0  9995
2 44388  97.7087 337.7030 0021525 324.9827  34.9978 14.96455696 28780
ICEYE-X5
1 44389U 19038C   20013.87297200 -.00000361  00000-0 -26479-4 0  9994
2 44389  97.7100 337.7936 0020122 315.4396  44.5207 14.96501932 28798
ICEYE-X4
1 44390U 19038D   20013.79951308 -.00000199  00000-0 -12264-4 0  9999
2 44390  97.7082 337.6810 0019851 316.4506  43.5147 14.96562152 28782
NSL-1
1 44391U 19038E   20013.84658649  .00001352  00000-0  12272-3 0  9996
2 44391  97.7090 337.8128 0019597 316.6247  43.3431 14.96825961 28714
VDNH-80
1 44392U 19038G   20013.84150326  .00001034  00000-0  62889-4 0  9993
2 44392  97.5180 337.4832 0020563 310.2095  49.7335 15.12497189 28862
D-STAR ONE (LIGHTSAT)
1 44393U 19038H   20013.13037060  .00000841  00000-0  52093-4 0  9996
2 44393  97.5179 336.7446 0021003 312.6358  47.3101 15.12343022 28964
AMGU-1 (AMURSAT)
1 44394U 19038J   20013.46839679  .00000869  00000-0  53776-4 0  9998
2 44394  97.5179 337.0604 0021010 311.7805  48.1629 15.12303944 29010
2019-038K
1 44395U 19038K   20013.12620996  .00000515  00000-0  33802-4 0  9998
2 44395  97.5171 336.5753 0024042 308.6899  51.2180 15.11802821 28943
LEMUR-2-LILLYJO
1 44396U 19038L   20013.15596360  .00001394  00000-0  84010-4 0  9992
2 44396  97.5137 336.6337 0023720 307.8560  52.0524 15.12231627 28956
2019-038M
1 44397U 19038M   20013.79550823  .00000859  00000-0  53845-4 0  9994
2 44397  97.5181 337.2406 0024377 304.2604  55.6317 15.11811633 29050
MOVE-IIB
1 44398U 19038N   20012.85511961  .00001243  00000-0  75794-4 0  9996
2 44398  97.5163 336.3245 0024252 309.6306  50.2784 15.11977448 28912
DOT-1
1 44399U 19038P   20012.86250270  .00000568  00000-0  36916-4 0  9993
2 44399  97.5187 336.3507 0023782 314.4277  45.5007 15.11809130 28915
SONATE
1 44400U 19038Q   20013.45702811  .00000504  00000-0  33161-4 0  9994
2 44400  97.5188 336.9345 0024011 305.4668  54.4321 15.11800653 29005
2019-038R
1 44401U 19038R   20013.43813648  .00001020  00000-0  62811-4 0  9992
2 44401  97.5178 336.9477 0023857 305.3356  54.5645 15.12028215 29008
LEMUR-2-WANLI
1 44402U 19038S   20013.16438102  .00001474  00000-0  88717-4 0  9997
2 44402  97.5143 336.6375 0023817 308.1912  51.7173 15.12167745 28961
LEMUR-2-MORAG
1 44403U 19038T   20013.16286629  .00001559  00000-0  93643-4 0  9991
2 44403  97.5175 336.7077 0022672 311.8588  48.0707 15.12189244 28965
SOKRAT
1 44404U 19038U   20012.83056220  .00001042  00000-0  64010-4 0  9990
2 44404  97.5176 336.3760 0021394 314.9169  45.0325 15.12117325 28910
LEMUR-2-DUSTINTHEWIND
1 44405U 19038V   20012.82018574  .00001575  00000-0  94269-4 0  9990
2 44405  97.5130 336.3002 0023710 308.8724  51.0391 15.12287257 28915
LUCKY-7
1 44406U 19038W   20012.96850686  .00000740  00000-0  46670-4 0  9990
2 44406  97.5183 336.5078 0023516 307.1949  52.7135 15.12023792 28921
LEMUR-2-ALEX-MADDY
1 44407U 19038X   20013.43056305  .00001178  00000-0  71866-4 0  9991
2 44407  97.5175 336.9586 0022646 311.1982  48.7295 15.12100765 28991
MOMENTUS-X1
1 44408U 19038Y   20012.83502571  .00000255  00000-0  18606-4 0  9994
2 44408  97.5174 336.3528 0022100 313.9614  45.9793 15.11984344 28914
LEMUR-2-EJATTA
1 44409U 19038Z   20013.46998324  .00001549  00000-0  92445-4 0  9990
2 44409  97.5129 336.9559 0023511 306.0654  53.8399 15.12403486 29015
D-STAR ONE (EXOCONNECT)
1 44410U 19038AA  20012.81295043  .00001294  00000-0  78110-4 0  9998
2 44410  97.5169 336.3917 0021407 314.2584  45.6889 15.12327314 28914
LEMUR-2-GREGROBINSON
1 44411U 19038AB  20012.84161124  .00001686  00000-0  10114-3 0  9998
2 44411  97.5184 336.3896 0022793 313.8574  46.0773 15.12124980 28585
BEESAT 9
1 44412U 19038AC  20013.83221878  .00000975  00000-0  60254-4 0  9993
2 44412  97.5179 337.3426 0021696 310.3982  49.5355 15.12038553 28759
LEMUR-2-YNDRD
1 44413U 19038AD  20013.35629396  .00000966  00000-0  59541-4 0  9995
2 44413  97.5168 336.8878 0022541 311.1227  48.8057 15.12147655 28995
2019-038AE
1 44414U 19038AE  20013.84436534  .00000599  00000-0  38504-4 0  9998
2 44414  97.5175 337.3735 0022949 310.8231 132.5173 15.12006507 28591
NARSSCUBE-2
1 44415U 19022E   20013.42399205  .00000558  00000-0  31553-4 0  9991
2 44415  51.6442  63.4704 0012293 116.7114 243.5126 15.29711230 24363
QUANTUM-RADAR 3
1 44416U 19022F   20012.55710833  .00002591  00000-0  99951-4 0  9994
2 44416  51.6426  67.4373 0012077 113.7184 246.5065 15.30063195 24217
RFTSAT
1 44417U 19022G   20013.15010410  .00001618  00000-0  67330-4 0  9991
2 44417  51.6440  64.6452 0012384 115.7310 244.4950 15.29928377 24349
ORCA-1
1 44418U 19022H   20013.13775180  .00002899  00000-0  11000-3 0  9996
2 44418  51.6436  64.5698 0012298 115.3344 244.8912 15.30167965 24334
JAISAT-1
1 44419U 19038F   20013.83598380  .00000884  00000-0  54328-4 0  9999
2 44419  97.5181 337.4932 0020544 310.1573  49.7858 15.12521685 29076
LIGHTSAIL 2
1 44420U 19036AC  20013.14569910  .00006225  00000-0  13950-2 0  9999
2 44420  24.0080  14.2997 0014912 194.7490 165.2643 14.54097647 27523
COSMOS 2535
1 44421U 19039A   20012.72719349 -.00000055  00000-0  00000+0 0  9994
2 44421  97.9000  67.5050 0011709  44.1098 316.0777 14.85884086 27506
COSMOS 2536
1 44422U 19039B   20013.86033662  .00000908  00000-0  11438-3 0  9995
2 44422  97.8524  68.1611 0010678  64.8714 295.3603 14.84363366 27762
COSMOS 2537
1 44423U 19039C   20013.82922105  .00001440  00000-0  17853-3 0  9990
2 44423  97.8693  68.4048 0011057  58.5436 301.6835 14.84175446 27746
COSMOS 2538
1 44424U 19039D   20012.86167217  .00000091  00000-0  16591-4 0  9999
2 44424  97.8572  67.6280 0009939  44.1658 316.0349 14.85988295 27616
SWIATOWID
1 44426U 98067QL  20013.77885405  .00015392  00000-0  22450-3 0  9996
2 44426  51.6448  32.9068 0004324  92.7846  78.0313 15.55879048 30239
KRAKSAT
1 44427U 98067QM  20013.47309811  .00005689  00000-0  94384-4 0  9990
2 44427  51.6420  35.7232 0004291  91.8544 268.2938 15.53747122 30211
VCC A
1 44428U 98067QN  20013.74546798  .00007138  00000-0  11370-3 0  9992
2 44428  51.6419  33.7950 0003441 107.9916 252.1450 15.54435973 30268
ENTRYSAT
1 44429U 98067QP  20013.52774656  .00008703  00000-0  13493-3 0  9992
2 44429  51.6407  34.5845 0003296  98.0551 262.0814 15.54865488 30230
VCC C
1 44430U 98067QQ  20013.06501379  .00011406  00000-0  17209-3 0  9996
2 44430  51.6411  36.7486 0003323 105.0554 255.0805 15.55260385 28982
VCC B
1 44431U 98067QR  20012.78292280  .00007678  00000-0  12180-3 0  9992
2 44431  51.6412  38.6128 0003552 104.4883 255.6502 15.54424592 30052
SOYUZ-MS 13
1 44437U 19041A   20012.55076083  .00001495  00000-0  34688-4 0  9998
2 44437  51.6453  43.5123 0004978 120.5892  11.7957 15.49558438 27282
YAOGAN-30 N
1 44449U 19045A   20013.73720860  .00000122  00000-0  15284-4 0  9992
2 44449  34.9981  33.8935 0003765 193.5098 166.5504 14.89709643 25609
YAOGAN-30 P
1 44450U 19045B   20013.51349606  .00000131  00000-0  16146-4 0  9993
2 44450  34.9972  34.9037 0011004 330.5394  29.4689 14.89713035 25569
YAOGAN-30 Q
1 44451U 19045C   20013.75918031  .00000128  00000-0  15868-4 0  9990
2 44451  34.9984  33.1362 0002079 337.4397  22.6213 14.89713672 25572
MERIDIAN 8
1 44453U 19046A   20010.85222013  .00000012  00000-0  00000+0 0  9998
2 44453  62.7661 323.3358 7195327 271.1024 336.4367  2.00620484  3290
COSMOS 2539
1 44457U 19048A   20012.70907264  .00000084  00000-0  00000-0 0  9998
2 44457   0.0370 147.4153 0000952 272.7339 318.7359  1.00269403  1664
EDRS-C
1 44475U 19049A   20013.50252641  .00000156  00000-0  00000+0 0  9999
2 44475   0.0380  84.9555 0000606 202.4872  37.0867  1.00273730  1678
INTELSAT 39 (IS-39)
1 44476U 19049B   20012.79081284  .00000037  00000-0  00000+0 0  9991
2 44476   0.0176  42.7200 0000516 299.0691 116.5812  1.00270091  1649
